*******************************************************************************
Ephemeris / WWW_USER Mon Mar 24 06:47:32 2025 Pasadena, USA      / Horizons    
*******************************************************************************
Target body name: 768325 (2015 BP519)             {source: JPL#13}
Center body name: Earth (399)                     {source: DE441}
Center-site name: Gemini South Obs., Cerro Pachon
*******************************************************************************
Start time      : A.D. 2018-Sep-03 22:37:00.0000 UT      
Stop  time      : A.D. 2018-Sep-04 10:46:00.0000 UT      
Step-size       : 1 minutes
*******************************************************************************
Target pole/equ : undefined
Target radii    : undefined                                                    
Center geodetic : 289.2634, -30.2406227, 2.71233  {E-lon(deg),Lat(deg),Alt(km)}
Center cylindric: 289.2634,5517.21435,-3194.81213 {E-lon(deg),Dxy(km),Dz(km)}
Center pole/equ : ITRF93                          {East-longitude positive}
Center radii    : 6378.137, 6378.137, 6356.752 km {Equator_a, b, pole_c}       
Target primary  : Sun
Vis. interferer : MOON (R_eq= 1737.400) km        {source: DE441}
Rel. light bend : Sun                             {source: DE441}
Rel. lght bnd GM: 1.3271E+11 km^3/s^2                                          
Small-body perts: Yes                             {source: SB441-N16}
Atmos refraction: NO (AIRLESS)
RA format       : HMS
Time format     : CAL 
Calendar mode   : Mixed Julian/Gregorian
RTS-only print  : NO       
EOP file        : eop.250321.p250617                                           
EOP coverage    : DATA-BASED 1962-JAN-20 TO 2025-MAR-21. PREDICTS-> 2025-JUN-16
Units conversion: 1 au= 149597870.700 km, c= 299792.458 km/s, 1 day= 86400.0 s 
Table cut-offs 1: Elevation (-90.0deg=NO ),Airmass (>38.000=NO), Daylight (YES)
Table cut-offs 2: Solar elongation (  0.0,180.0=NO ),Local Hour Angle( 0.0=NO )
Table cut-offs 3: RA/DEC angular rate (     0.0=NO )                           
*******************************************************************************
Initial IAU76/J2000 heliocentric ecliptic osculating elements (au, days, deg.):
  EPOCH=  2459486.5 ! 2021-Sep-29.00 (TDB)         Residual RMS= .071772       
   EC= .9216453194433936   QR= 35.32438628437644   TP= 2473006.6899544764      
   OM= 135.0347983875217   W=  347.957608556413    IN= 54.13315864151695       
  Equivalent ICRF heliocentric cartesian coordinates (au, au/d):
   X= 1.447262462803667E+01  Y= 4.058013389773870E+01  Z=-2.635496110070412E+01
  VX=-2.666905795807619E-03 VY= 1.989051018714909E-05 VZ= 1.987184001515517E-03
Asteroid physical parameters (km, seconds, rotational period in hours):        
   GM= n.a.                RAD= n.a.               ROTPER= n.a.                
   H= 4.34                 G= .150                 B-V= n.a.                   
                           ALBEDO= n.a.            STYP= n.a.                  
*******************************************************************************
 Date__(UT)__HR:MN     R.A._________(ICRF)_________DEC
******************************************************
$$SOE
 2018-Sep-04 00:40     04 32 00.862688 -32 50 52.46098
 2018-Sep-04 00:41     04 32 00.863117 -32 50 52.49629
 2018-Sep-04 00:42     04 32 00.863547 -32 50 52.53161
 2018-Sep-04 00:43     04 32 00.863976 -32 50 52.56693
 2018-Sep-04 00:44     04 32 00.864405 -32 50 52.60225
 2018-Sep-04 00:45     04 32 00.864834 -32 50 52.63757
 2018-Sep-04 00:46     04 32 00.865263 -32 50 52.67290
 2018-Sep-04 00:47     04 32 00.865692 -32 50 52.70822
 2018-Sep-04 00:48     04 32 00.866120 -32 50 52.74355
 2018-Sep-04 00:49     04 32 00.866548 -32 50 52.77887
 2018-Sep-04 00:50     04 32 00.866976 -32 50 52.81420
 2018-Sep-04 00:51     04 32 00.867404 -32 50 52.84953
 2018-Sep-04 00:52     04 32 00.867832 -32 50 52.88486
 2018-Sep-04 00:53     04 32 00.868260 -32 50 52.92019
 2018-Sep-04 00:54     04 32 00.868687 -32 50 52.95553
 2018-Sep-04 00:55     04 32 00.869114 -32 50 52.99086
 2018-Sep-04 00:56     04 32 00.869541 -32 50 53.02620
 2018-Sep-04 00:57     04 32 00.869968 -32 50 53.06154
 2018-Sep-04 00:58     04 32 00.870395 -32 50 53.09687
 2018-Sep-04 00:59     04 32 00.870822 -32 50 53.13221
 2018-Sep-04 01:00     04 32 00.871248 -32 50 53.16755
 2018-Sep-04 01:01     04 32 00.871674 -32 50 53.20290
 2018-Sep-04 01:02     04 32 00.872100 -32 50 53.23824
 2018-Sep-04 01:03     04 32 00.872526 -32 50 53.27358
 2018-Sep-04 01:04     04 32 00.872951 -32 50 53.30893
 2018-Sep-04 01:05     04 32 00.873377 -32 50 53.34428
 2018-Sep-04 01:06     04 32 00.873802 -32 50 53.37962
 2018-Sep-04 01:07     04 32 00.874227 -32 50 53.41497
 2018-Sep-04 01:08     04 32 00.874652 -32 50 53.45032
 2018-Sep-04 01:09     04 32 00.875077 -32 50 53.48568
 2018-Sep-04 01:10     04 32 00.875501 -32 50 53.52103
 2018-Sep-04 01:11     04 32 00.875925 -32 50 53.55638
 2018-Sep-04 01:12     04 32 00.876349 -32 50 53.59174
 2018-Sep-04 01:13     04 32 00.876773 -32 50 53.62709
 2018-Sep-04 01:14     04 32 00.877197 -32 50 53.66245
 2018-Sep-04 01:15     04 32 00.877621 -32 50 53.69781
 2018-Sep-04 01:16     04 32 00.878044 -32 50 53.73317
 2018-Sep-04 01:17     04 32 00.878467 -32 50 53.76853
 2018-Sep-04 01:18     04 32 00.878890 -32 50 53.80389
 2018-Sep-04 01:19     04 32 00.879313 -32 50 53.83926
 2018-Sep-04 01:20     04 32 00.879735 -32 50 53.87462
 2018-Sep-04 01:21     04 32 00.880158 -32 50 53.90999
 2018-Sep-04 01:22     04 32 00.880580 -32 50 53.94535
 2018-Sep-04 01:23     04 32 00.881002 -32 50 53.98072
 2018-Sep-04 01:24     04 32 00.881423 -32 50 54.01609
 2018-Sep-04 01:25     04 32 00.881845 -32 50 54.05146
 2018-Sep-04 01:26     04 32 00.882266 -32 50 54.08683
 2018-Sep-04 01:27     04 32 00.882687 -32 50 54.12220
 2018-Sep-04 01:28     04 32 00.883108 -32 50 54.15757
 2018-Sep-04 01:29     04 32 00.883529 -32 50 54.19295
 2018-Sep-04 01:30     04 32 00.883950 -32 50 54.22832
 2018-Sep-04 01:31     04 32 00.884370 -32 50 54.26370
 2018-Sep-04 01:32     04 32 00.884790 -32 50 54.29908
 2018-Sep-04 01:33     04 32 00.885210 -32 50 54.33446
 2018-Sep-04 01:34     04 32 00.885630 -32 50 54.36984
 2018-Sep-04 01:35     04 32 00.886049 -32 50 54.40522
 2018-Sep-04 01:36     04 32 00.886469 -32 50 54.44060
 2018-Sep-04 01:37     04 32 00.886888 -32 50 54.47598
 2018-Sep-04 01:38     04 32 00.887307 -32 50 54.51137
 2018-Sep-04 01:39     04 32 00.887725 -32 50 54.54675
 2018-Sep-04 01:40     04 32 00.888144 -32 50 54.58214
 2018-Sep-04 01:41     04 32 00.888562 -32 50 54.61753
 2018-Sep-04 01:42     04 32 00.888980 -32 50 54.65291
 2018-Sep-04 01:43     04 32 00.889398 -32 50 54.68830
 2018-Sep-04 01:44     04 32 00.889816 -32 50 54.72369
 2018-Sep-04 01:45     04 32 00.890233 -32 50 54.75908
 2018-Sep-04 01:46     04 32 00.890650 -32 50 54.79448
 2018-Sep-04 01:47     04 32 00.891067 -32 50 54.82987
 2018-Sep-04 01:48     04 32 00.891484 -32 50 54.86526
 2018-Sep-04 01:49     04 32 00.891901 -32 50 54.90066
 2018-Sep-04 01:50     04 32 00.892317 -32 50 54.93606
 2018-Sep-04 01:51     04 32 00.892733 -32 50 54.97145
 2018-Sep-04 01:52     04 32 00.893149 -32 50 55.00685
 2018-Sep-04 01:53     04 32 00.893565 -32 50 55.04225
 2018-Sep-04 01:54     04 32 00.893980 -32 50 55.07765
 2018-Sep-04 01:55     04 32 00.894395 -32 50 55.11305
 2018-Sep-04 01:56     04 32 00.894811 -32 50 55.14845
 2018-Sep-04 01:57     04 32 00.895225 -32 50 55.18386
 2018-Sep-04 01:58     04 32 00.895640 -32 50 55.21926
 2018-Sep-04 01:59     04 32 00.896054 -32 50 55.25467
 2018-Sep-04 02:00     04 32 00.896469 -32 50 55.29007
 2018-Sep-04 02:01     04 32 00.896882 -32 50 55.32548
 2018-Sep-04 02:02     04 32 00.897296 -32 50 55.36089
 2018-Sep-04 02:03     04 32 00.897710 -32 50 55.39629
 2018-Sep-04 02:04     04 32 00.898123 -32 50 55.43170
 2018-Sep-04 02:05     04 32 00.898536 -32 50 55.46711
 2018-Sep-04 02:06     04 32 00.898949 -32 50 55.50253
 2018-Sep-04 02:07     04 32 00.899361 -32 50 55.53794
 2018-Sep-04 02:08     04 32 00.899774 -32 50 55.57335
 2018-Sep-04 02:09     04 32 00.900186 -32 50 55.60877
 2018-Sep-04 02:10     04 32 00.900598 -32 50 55.64418
 2018-Sep-04 02:11     04 32 00.901010 -32 50 55.67960
 2018-Sep-04 02:12     04 32 00.901421 -32 50 55.71501
 2018-Sep-04 02:13     04 32 00.901832 -32 50 55.75043
 2018-Sep-04 02:14     04 32 00.902243 -32 50 55.78585
 2018-Sep-04 02:15     04 32 00.902654 -32 50 55.82127
 2018-Sep-04 02:16     04 32 00.903065 -32 50 55.85669
 2018-Sep-04 02:17     04 32 00.903475 -32 50 55.89211
 2018-Sep-04 02:18     04 32 00.903885 -32 50 55.92753
 2018-Sep-04 02:19     04 32 00.904295 -32 50 55.96295
 2018-Sep-04 02:20     04 32 00.904704 -32 50 55.99838
 2018-Sep-04 02:21     04 32 00.905114 -32 50 56.03380
 2018-Sep-04 02:22     04 32 00.905523 -32 50 56.06923
 2018-Sep-04 02:23     04 32 00.905932 -32 50 56.10465
 2018-Sep-04 02:24     04 32 00.906341 -32 50 56.14008
 2018-Sep-04 02:25     04 32 00.906749 -32 50 56.17551
 2018-Sep-04 02:26     04 32 00.907157 -32 50 56.21094
 2018-Sep-04 02:27     04 32 00.907565 -32 50 56.24637
 2018-Sep-04 02:28     04 32 00.907973 -32 50 56.28180
 2018-Sep-04 02:29     04 32 00.908380 -32 50 56.31723
 2018-Sep-04 02:30     04 32 00.908788 -32 50 56.35266
 2018-Sep-04 02:31     04 32 00.909195 -32 50 56.38809
 2018-Sep-04 02:32     04 32 00.909602 -32 50 56.42352
 2018-Sep-04 02:33     04 32 00.910008 -32 50 56.45896
 2018-Sep-04 02:34     04 32 00.910414 -32 50 56.49439
 2018-Sep-04 02:35     04 32 00.910820 -32 50 56.52983
 2018-Sep-04 02:36     04 32 00.911226 -32 50 56.56526
 2018-Sep-04 02:37     04 32 00.911632 -32 50 56.60070
 2018-Sep-04 02:38     04 32 00.912037 -32 50 56.63614
 2018-Sep-04 02:39     04 32 00.912442 -32 50 56.67157
 2018-Sep-04 02:40     04 32 00.912847 -32 50 56.70701
 2018-Sep-04 02:41     04 32 00.913252 -32 50 56.74245
 2018-Sep-04 02:42  r  04 32 00.913656 -32 50 56.77789
